              M50 Cartesian                         M50 Keplerian  
    -----------------------------------       --------------------------------
     X    =         789985.47                 A    =         6777102.62  meter
     Y    =        4164732.50  meter          E    =           .0004329
     Z    =        5284662.01                 I    =           51.50893
     XDOT =      -7382.618924                 Wp   =           59.25521
     YDOT =       2027.841099  meter/sec      RA   =          341.71162  deg
     ZDOT =       -492.028559                 TA   =           35.45922
                                              MA   =           35.43044
                                              Ha   =            221.247  n.mi
                                              Hp   =            214.056
 
              M50 Cartesian                         J2K Cartesian  
    -----------------------------------       --------------------------------
     X    =        2591815.83                 X    =          717684.65
     Y    =       13663820.54  feet           Y    =         4173162.83  meter
     Z    =       17338129.94                 Z    =         5288323.66
     XDOT =     -24221.190694                 XDOT =       -7402.355953
     YDOT =       6653.021977  feet/sec       YDOT =        1945.173344  meter/sec
     ZDOT =      -1614.266927                 ZDOT =        -527.940155
 
              TDR Cartesian                         TDR Cartesian  
    -----------------------------------       --------------------------------
     X    =      -12910314.76                 X    =        -3935063.94
     Y    =        5120372.13  feet           Y    =         1560689.43  meter
     Z    =       17353207.57                 Z    =         5289257.67
     XDOT =     -10912.739336                 XDOT =       -3326.202950
     YDOT =     -21486.736807  feet/sec       YDOT =       -6549.157379  meter/sec
     ZDOT =      -1770.643736                 ZDOT =        -539.692211
  
  
    The mean element set is posted at the UTC for which position is
    just north of the next ascending node relative to the above
    vector time
 
 
    TWO LINE MEAN ELEMENT SET
  
    ISS
    1 25544U 98067A   16112.24871710  .00016717  00000-0  10270-3 0  9143
    2 25544  51.6402 342.0504 0001593  45.9793 314.1490 15.54244832 36125
  
  
    Satellite: ISS
    Catalog Number: 25544
    Epoch time:      16112.24871710   =   yrday.fracday
    Element set:     914
    Inclination:       51.6402  deg
    RA of node:       342.0504  deg
    Eccentricity:     .0001593     
    Arg of perigee:    45.9793  deg
    Mean anomaly:     314.1490  deg
    Mean motion:   15.54244832  rev/day
    Decay rate:    1.67170E-04  rev/day^2
    Epoch rev:            3612
    Checksum:              282
 
 
    Coasting Arc #16 (Orbit 3626)
    ---------------------------------------
 
    Vector Time (GMT): 2016/113/04:50:00.000
    Vector Time (MET): N/A
    Weight (LBS)     : 943981.9
 
              M50 Cartesian                         M50 Keplerian  
    -----------------------------------       --------------------------------
     X    =         976104.18                 A    =         6779003.49  meter
     Y    =       -4633679.60  meter          E    =           .0012653
     Z    =       -4862552.75                 I    =           51.48576
     XDOT =       7198.596116                 Wp   =          100.53914
     YDOT =      -1010.573144  meter/sec      RA   =          336.70274  deg
     ZDOT =       2411.131893                 TA   =          193.16992
                                              MA   =          193.20299
                                              Ha   =            221.297  n.mi
                                              Hp   =            214.028
 
              M50 Cartesian                         J2K Cartesian  
    -----------------------------------       --------------------------------
     X    =        3202441.54                 X    =         1051467.22
     Y    =      -15202360.88  feet           Y    =        -4622343.11  meter
     Z    =      -15953257.06                 Z    =        -4857627.62
     XDOT =      23617.441325                 XDOT =        7197.649122
     YDOT =      -3315.528687  feet/sec       YDOT =        -930.078780  meter/sec
     ZDOT =       7910.537707                 ZDOT =        2446.099282
 
              TDR Cartesian                         TDR Cartesian  
    -----------------------------------       --------------------------------
     X    =       15558867.68                 X    =         4742342.87
     Y    =         -18531.47  feet           Y    =           -5648.39  meter
     Z    =      -15930948.25                 Z    =        -4855753.03
     XDOT =       8270.259479                 XDOT =        2520.775089
     YDOT =      21179.725020  feet/sec       YDOT =        6455.580186  meter/sec
     ZDOT =       8062.601311                 ZDOT =        2457.480880
  
  
    The mean element set is posted at the UTC for which position is
    just north of the next ascending node relative to the above
    vector time
 
 
    TWO LINE MEAN ELEMENT SET
  
    ISS
    1 25544U 98067A   16113.21316532  .00016717  00000-0  10270-3 0  9158
    2 25544  51.6409 337.2420 0001678  47.2054 312.9239 15.54248637 36274
  
  
    Satellite: ISS
    Catalog Number: 25544
    Epoch time:      16113.21316532   =   yrday.fracday
    Element set:     915
    Inclination:       51.6409  deg
    RA of node:       337.2420  deg
    Eccentricity:     .0001678     
    Arg of perigee:    47.2054  deg
    Mean anomaly:     312.9239  deg
    Mean motion:   15.54248637  rev/day
    Decay rate:    1.67170E-04  rev/day^2
    Epoch rev:            3627
    Checksum:              296
 
 
    Coasting Arc #17 (Orbit 3634)
    ---------------------------------------
 
    Vector Time (GMT): 2016/113/16:32:00.000
    Vector Time (MET): N/A
    Weight (LBS)     : 943981.9
 
              M50 Cartesian                         M50 Keplerian  
    -----------------------------------       --------------------------------
     X    =       -3811586.58                 A    =         6784774.12  meter
     Y    =        4629896.57  meter          E    =           .0014175
     Z    =        3160560.88                 I    =           51.49018
     XDOT =      -5788.223972                 Wp   =           91.12492
     YDOT =      -1464.301737  meter/sec      RA   =          334.25731  deg
     ZDOT =      -4817.016668                 TA   =           52.30342
                                              MA   =           52.17498
                                              Ha   =            221.315  n.mi
                                              Hp   =            214.006
 
              M50 Cartesian                         J2K Cartesian  
    -----------------------------------       --------------------------------
     X    =      -12505205.30                 X    =        -3878428.89
     Y    =       15189949.38  feet           Y    =         4586899.33  meter
     Z    =       10369294.23                 Z    =         3141882.15
     XDOT =     -18990.236128                 XDOT =       -5748.020146
     YDOT =      -4804.139556  feet/sec       YDOT =       -1528.805011  meter/sec
     ZDOT =     -15803.860459                 ZDOT =       -4845.037207
 
              TDR Cartesian                         TDR Cartesian  
    -----------------------------------       --------------------------------
     X    =       16848867.73                 X    =         5135534.88
     Y    =       10243289.92  feet           Y    =         3122154.77  meter
     Z    =       10287256.80                 Z    =         3135555.87
     XDOT =      -1277.316985                 XDOT =        -389.326217
     YDOT =      18155.872375  feet/sec       YDOT =        5533.909900  meter/sec
     ZDOT =     -15925.259454                 ZDOT =       -4854.019082
  
  
    The mean element set is posted at the UTC for which position is
    just north of the next ascending node relative to the above
    vector time
 
 
    TWO LINE MEAN ELEMENT SET
  
    ISS
    1 25544U 98067A   16113.72753522  .00016717  00000-0  10270-3 0  9169
    2 25544  51.6403 334.6730 0001447  62.4102 297.7198 15.54261218 36353
  
  
    Satellite: ISS
    Catalog Number: 25544
    Epoch time:      16113.72753522   =   yrday.fracday
    Element set:     916
    Inclination:       51.6403  deg
    RA of node:       334.6730  deg
    Eccentricity:     .0001447     
    Arg of perigee:    62.4102  deg
    Mean anomaly:     297.7198  deg
    Mean motion:   15.54261218  rev/day
    Decay rate:    1.67170E-04  rev/day^2
    Epoch rev:            3635
    Checksum:              296
 
             </PRE>
           </TD>
        </TR>
    </TABLE>
    
    <table align="center" border="0" width="600" cellpadding="0" cellspacing="0">
      <tr>
        <td align="center" valign="top"><hr size="1" width="600" noshade="noshade" />
        <font face="Arial,helvetica" size="-2">Curator: <a href="/cgi-bin/comment.cgi?jsc-hsfwebma@mail.nasa.gov">Kim 
          Dismukes</a> | Responsible NASA Official: <a href="/cgi-bin/comment.cgi?jsc-hsfwebma@mail.nasa.gov">Amiko Kauderer</a> | Updated: 06/08/2009<br />
        <a href="http://www.nasa.gov/about/highlights/HP_Privacy.html">Privacy Policy and Important Notices</a></font></td>
      </tr>
    </table>
    </body>
    </html>
